QIANFAN-1               
1 60379U 24140A   26064.94041415  .00000096  00000+0  13008-3 0  9991
2 60379  88.9716 290.6749 0017062 340.5616  19.4882 13.50999547 78586
QIANFAN-2               
1 60380U 24140B   26064.89507669  .00000110  00000+0  15151-3 0  9993
2 60380  88.9702 290.5074 0011582 313.5615  46.4574 13.51003712 78638
QIANFAN-3               
1 60381U 24140C   26064.90323784  .00000106  00000+0  14572-3 0  9991
2 60381  88.9695 290.6329 0013057 326.4944  33.5380 13.50999660 78548
QIANFAN-4               
1 60382U 24140D   26064.87865544  .00000108  00000+0  14936-3 0  9999
2 60382  88.9719 290.5541 0011881 316.3647  43.6563 13.50999980 78665
QIANFAN-5               
1 60383U 24140E   26064.92805479  .00000088  00000+0  11816-3 0  9998
2 60383  88.9694 290.6556 0014645 337.5376  22.5133 13.51001958 78535
QIANFAN-6               
1 60384U 24140F   26064.94863231  .00000100  00000+0  13669-3 0  9994
2 60384  88.9720 290.4221 0012143 322.4429  37.5873 13.51001739 78732
QIANFAN-7               
1 60385U 24140G   26064.93748108  .00000349  00000+0  13511-3 0  9990
2 60385  88.9733 283.9515 0016642 122.2199 238.0611 14.27772335 82260
QIANFAN-8               
1 60386U 24140H   26064.88278706  .00000110  00000+0  15186-3 0  9993
2 60386  88.9722 290.6676 0015651 323.4764  36.5319 13.51003281 78572
QIANFAN-9               
1 60387U 24140J   26064.93215788  .00000091  00000+0  12313-3 0  9998
2 60387  88.9721 290.7362 0015338 323.1550  36.8546 13.50998054 78561
QIANFAN-10              
1 60388U 24140K   26064.93615602  .00000098  00000+0  13399-3 0  9990
2 60388  88.9729 290.0909 0013238 299.1644  60.8182 13.50996483 78694
QIANFAN-11              
1 60389U 24140L   26064.89926581  .00000102  00000+0  14004-3 0  9997
2 60389  88.9656 290.6200 0013365 323.8065  36.2181 13.51003302 78345
QIANFAN-12              
1 60390U 24140M   26064.91984304  .00000096  00000+0  13026-3 0  9994
2 60390  88.9699 290.6976 0012437 333.0403  27.0101 13.51000987 78472
QIANFAN-13              
1 60391U 24140N   26064.89101404  .00000104  00000+0  14237-3 0  9999
2 60391  88.9712 290.8107 0012344 336.0258  24.0317 13.51001442 78490
QIANFAN-14              
1 60392U 24140P   26064.91563289  .00000097  00000+0  13202-3 0  9998
2 60392  88.9690 290.6880 0016008 334.0525  25.9822 13.51001255 78503
QIANFAN-15              
1 60393U 24140Q   26064.92400840  .00000082  00000+0  10803-3 0  9991
2 60393  88.9714 290.6634 0011408 321.5972  38.4366 13.50999114 78493
QIANFAN-16              
1 60394U 24140R   26064.91150482  .00000110  00000+0  15217-3 0  9991
2 60394  88.9717 290.7873 0014074 339.0447  21.0126 13.50997763 78407
QIANFAN-17              
1 60395U 24140S   26064.90749672  .00000103  00000+0  14064-3 0  9997
2 60395  88.9728 290.8428 0014264 332.2835  27.7554 13.51004466 79368
