[{"OBJECT_NAME":"QIANFAN-1","OBJECT_ID":"2024-140A","EPOCH":"2026-03-05T22:34:11.782560","MEAN_MOTION":13.50999547,"ECCENTRICITY":0.0017062,"INCLINATION":88.9716,"RA_OF_ASC_NODE":290.6749,"ARG_OF_PERICENTER":340.5616,"MEAN_ANOMALY":19.4882,"EPHEMERIS_TYPE":0,"CLASSIFICATION_TYPE":"U","NORAD_CAT_ID":60379,"ELEMENT_SET_NO":999,"REV_AT_EPOCH":7858,"BSTAR":0.000130078,"MEAN_MOTION_DOT":9.6e-7,"MEAN_MOTION_DDOT":0},{"OBJECT_NAME":"QIANFAN-2","OBJECT_ID":"2024-140B","EPOCH":"2026-03-05T21:28:54.626016","MEAN_MOTION":13.51003712,"ECCENTRICITY":0.00115828,"INCLINATION":88.9702,"RA_OF_ASC_NODE":290.5074,"ARG_OF_PERICENTER":313.5615,"MEAN_ANOMALY":46.4574,"EPHEMERIS_TYPE":0,"CLASSIFICATION_TYPE":"U","NORAD_CAT_ID":60380,"ELEMENT_SET_NO":999,"REV_AT_EPOCH":7863,"BSTAR":0.00015151291,"MEAN_MOTION_DOT":1.1e-6,"MEAN_MOTION_DDOT":0},{"OBJECT_NAME":"QIANFAN-3","OBJECT_ID":"2024-140C","EPOCH":"2026-03-05T21:40:39.749376","MEAN_MOTION":13.5099966,"ECCENTRICITY":0.00130574,"INCLINATION":88.9695,"RA_OF_ASC_NODE":290.6329,"ARG_OF_PERICENTER":326.4944,"MEAN_ANOMALY":33.538,"EPHEMERIS_TYPE":0,"CLASSIFICATION_TYPE":"U","NORAD_CAT_ID":60381,"ELEMENT_SET_NO":999,"REV_AT_EPOCH":7854,"BSTAR":0.00014572002,"MEAN_MOTION_DOT":1.06e-6,"MEAN_MOTION_DDOT":0},{"OBJECT_NAME":"QIANFAN-4","OBJECT_ID":"2024-140D","EPOCH":"2026-03-05T21:05:15.830016","MEAN_MOTION":13.5099998,"ECCENTRICITY":0.00118815,"INCLINATION":88.9719,"RA_OF_ASC_NODE":290.5541,"ARG_OF_PERICENTER":316.3647,"MEAN_ANOMALY":43.6563,"EPHEMERIS_TYPE":0,"CLASSIFICATION_TYPE":"U","NORAD_CAT_ID":60382,"ELEMENT_SET_NO":999,"REV_AT_EPOCH":7866,"BSTAR":0.00014935678,"MEAN_MOTION_DOT":1.08e-6,"MEAN_MOTION_DDOT":0},{"OBJECT_NAME":"QIANFAN-5","OBJECT_ID":"2024-140E","EPOCH":"2026-03-05T22:16:23.933856","MEAN_MOTION":13.51001958,"ECCENTRICITY":0.00146453,"INCLINATION":88.9694,"RA_OF_ASC_NODE":290.6556,"ARG_OF_PERICENTER":337.5376,"MEAN_ANOMALY":22.5133,"EPHEMERIS_TYPE":0,"CLASSIFICATION_TYPE":"U","NORAD_CAT_ID":60383,"ELEMENT_SET_NO":999,"REV_AT_EPOCH":7853,"BSTAR":0.00011816066,"MEAN_MOTION_DOT":8.8e-7,"MEAN_MOTION_DDOT":0},{"OBJECT_NAME":"QIANFAN-6","OBJECT_ID":"2024-140F","EPOCH":"2026-03-05T22:46:01.831584","MEAN_MOTION":13.51001739,"ECCENTRICITY":0.00121437,"INCLINATION":88.972,"RA_OF_ASC_NODE":290.4221,"ARG_OF_PERICENTER":322.4429,"MEAN_ANOMALY":37.5873,"EPHEMERIS_TYPE":0,"CLASSIFICATION_TYPE":"U","NORAD_CAT_ID":60384,"ELEMENT_SET_NO":999,"REV_AT_EPOCH":7873,"BSTAR":0.000136687,"MEAN_MOTION_DOT":1.0e-6,"MEAN_MOTION_DDOT":0},{"OBJECT_NAME":"QIANFAN-7","OBJECT_ID":"2024-140G","EPOCH":"2026-03-05T22:29:58.365312","MEAN_MOTION":14.27772335,"ECCENTRICITY":0.00166424,"INCLINATION":88.9733,"RA_OF_ASC_NODE":283.9515,"ARG_OF_PERICENTER":122.2199,"MEAN_ANOMALY":238.0611,"EPHEMERIS_TYPE":0,"CLASSIFICATION_TYPE":"U","NORAD_CAT_ID":60385,"ELEMENT_SET_NO":999,"REV_AT_EPOCH":8226,"BSTAR":0.00013510583,"MEAN_MOTION_DOT":3.49e-6,"MEAN_MOTION_DDOT":0},{"OBJECT_NAME":"QIANFAN-8","OBJECT_ID":"2024-140H","EPOCH":"2026-03-05T21:11:12.801984","MEAN_MOTION":13.51003281,"ECCENTRICITY":0.00156519,"INCLINATION":88.9722,"RA_OF_ASC_NODE":290.6676,"ARG_OF_PERICENTER":323.4764,"MEAN_ANOMALY":36.5319,"EPHEMERIS_TYPE":0,"CLASSIFICATION_TYPE":"U","NORAD_CAT_ID":60386,"ELEMENT_SET_NO":999,"REV_AT_EPOCH":7857,"BSTAR":0.00015186367,"MEAN_MOTION_DOT":1.1e-6,"MEAN_MOTION_DDOT":0},{"OBJECT_NAME":"QIANFAN-9","OBJECT_ID":"2024-140J","EPOCH":"2026-03-05T22:22:18.440832","MEAN_MOTION":13.50998054,"ECCENTRICITY":0.00153388,"INCLINATION":88.9721,"RA_OF_ASC_NODE":290.7362,"ARG_OF_PERICENTER":323.155,"MEAN_ANOMALY":36.8546,"EPHEMERIS_TYPE":0,"CLASSIFICATION_TYPE":"U","NORAD_CAT_ID":60387,"ELEMENT_SET_NO":999,"REV_AT_EPOCH":7856,"BSTAR":0.00012313315,"MEAN_MOTION_DOT":9.1e-7,"MEAN_MOTION_DDOT":0},{"OBJECT_NAME":"QIANFAN-10","OBJECT_ID":"2024-140K","EPOCH":"2026-03-05T22:28:03.880128","MEAN_MOTION":13.50996483,"ECCENTRICITY":0.00132389,"INCLINATION":88.9729,"RA_OF_ASC_NODE":290.0909,"ARG_OF_PERICENTER":299.1644,"MEAN_ANOMALY":60.8182,"EPHEMERIS_TYPE":0,"CLASSIFICATION_TYPE":"U","NORAD_CAT_ID":60388,"ELEMENT_SET_NO":999,"REV_AT_EPOCH":7869,"BSTAR":0.00013398636,"MEAN_MOTION_DOT":9.8e-7,"MEAN_MOTION_DDOT":0},{"OBJECT_NAME":"QIANFAN-11","OBJECT_ID":"2024-140L","EPOCH":"2026-03-05T21:34:56.565984","MEAN_MOTION":13.51003302,"ECCENTRICITY":0.00133654,"INCLINATION":88.9656,"RA_OF_ASC_NODE":290.62,"ARG_OF_PERICENTER":323.8065,"MEAN_ANOMALY":36.2181,"EPHEMERIS_TYPE":0,"CLASSIFICATION_TYPE":"U","NORAD_CAT_ID":60389,"ELEMENT_SET_NO":999,"REV_AT_EPOCH":7834,"BSTAR":0.00014003517,"MEAN_MOTION_DOT":1.02e-6,"MEAN_MOTION_DDOT":0},{"OBJECT_NAME":"QIANFAN-12","OBJECT_ID":"2024-140M","EPOCH":"2026-03-05T22:04:34.438656","MEAN_MOTION":13.51000987,"ECCENTRICITY":0.00124377,"INCLINATION":88.9699,"RA_OF_ASC_NODE":290.6976,"ARG_OF_PERICENTER":333.0403,"MEAN_ANOMALY":27.0101,"EPHEMERIS_TYPE":0,"CLASSIFICATION_TYPE":"U","NORAD_CAT_ID":60390,"ELEMENT_SET_NO":999,"REV_AT_EPOCH":7847,"BSTAR":0.00013025678,"MEAN_MOTION_DOT":9.6e-7,"MEAN_MOTION_DDOT":0},{"OBJECT_NAME":"QIANFAN-13","OBJECT_ID":"2024-140N","EPOCH":"2026-03-05T21:23:03.613056","MEAN_MOTION":13.51001442,"ECCENTRICITY":0.00123446,"INCLINATION":88.9712,"RA_OF_ASC_NODE":290.8107,"ARG_OF_PERICENTER":336.0258,"MEAN_ANOMALY":24.0317,"EPHEMERIS_TYPE":0,"CLASSIFICATION_TYPE":"U","NORAD_CAT_ID":60391,"ELEMENT_SET_NO":999,"REV_AT_EPOCH":7849,"BSTAR":0.00014237465,"MEAN_MOTION_DOT":1.04e-6,"MEAN_MOTION_DDOT":0},{"OBJECT_NAME":"QIANFAN-14","OBJECT_ID":"2024-140P","EPOCH":"2026-03-05T21:58:30.681696","MEAN_MOTION":13.51001255,"ECCENTRICITY":0.00160081,"INCLINATION":88.969,"RA_OF_ASC_NODE":290.688,"ARG_OF_PERICENTER":334.0525,"MEAN_ANOMALY":25.9822,"EPHEMERIS_TYPE":0,"CLASSIFICATION_TYPE":"U","NORAD_CAT_ID":60392,"ELEMENT_SET_NO":999,"REV_AT_EPOCH":7850,"BSTAR":0.00013201717,"MEAN_MOTION_DOT":9.7e-7,"MEAN_MOTION_DDOT":0},{"OBJECT_NAME":"QIANFAN-15","OBJECT_ID":"2024-140Q","EPOCH":"2026-03-05T22:10:34.325760","MEAN_MOTION":13.50999114,"ECCENTRICITY":0.0011408,"INCLINATION":88.9714,"RA_OF_ASC_NODE":290.6634,"ARG_OF_PERICENTER":321.5972,"MEAN_ANOMALY":38.4366,"EPHEMERIS_TYPE":0,"CLASSIFICATION_TYPE":"U","NORAD_CAT_ID":60393,"ELEMENT_SET_NO":999,"REV_AT_EPOCH":7849,"BSTAR":0.00010802524,"MEAN_MOTION_DOT":8.2e-7,"MEAN_MOTION_DDOT":0},{"OBJECT_NAME":"QIANFAN-16","OBJECT_ID":"2024-140R","EPOCH":"2026-03-05T21:52:34.016448","MEAN_MOTION":13.50997763,"ECCENTRICITY":0.0014074,"INCLINATION":88.9717,"RA_OF_ASC_NODE":290.7873,"ARG_OF_PERICENTER":339.0447,"MEAN_ANOMALY":21.0126,"EPHEMERIS_TYPE":0,"CLASSIFICATION_TYPE":"U","NORAD_CAT_ID":60394,"ELEMENT_SET_NO":999,"REV_AT_EPOCH":7840,"BSTAR":0.00015217249,"MEAN_MOTION_DOT":1.1e-6,"MEAN_MOTION_DDOT":0},{"OBJECT_NAME":"QIANFAN-17","OBJECT_ID":"2024-140S","EPOCH":"2026-03-05T21:46:47.716608","MEAN_MOTION":13.51004466,"ECCENTRICITY":0.00142649,"INCLINATION":88.9728,"RA_OF_ASC_NODE":290.8428,"ARG_OF_PERICENTER":332.2835,"MEAN_ANOMALY":27.7554,"EPHEMERIS_TYPE":0,"CLASSIFICATION_TYPE":"U","NORAD_CAT_ID":60395,"ELEMENT_SET_NO":999,"REV_AT_EPOCH":7936,"BSTAR":0.00014063845,"MEAN_MOTION_DOT":1.03e-6,"MEAN_MOTION_DDOT":0}]
